IRIDIUM 33 DEB          
1 37558U 97051XT  17345.92598357  .00000742  00000-0  18876-3 0  9994
2 37558  86.4047 216.8299 0081858  59.4952 301.4300 14.47277332190977
